CCSDS_OMM_VERS = 2.0
CREATION_DATE  = 
ORIGINATOR     = 

OBJECT_NAME    = UNKNOWN
OBJECT_ID      = 
CENTER_NAME    = EARTH
REF_FRAME      = TEME
TIME_SYSTEM    = UTC
MEAN_ELEMENT_THEORY = SGP/SGP4

EPOCH          = 2026-02-27T18:05:29.432832
MEAN_MOTION    = 12.26204517
ECCENTRICITY   = .01351634
INCLINATION    = 74.0195
RA_OF_ASC_NODE = 78.1399
ARG_OF_PERICENTER = 44.7942
MEAN_ANOMALY   = 316.3915

EPHEMERIS_TYPE = 0
CLASSIFICATION_TYPE = U
NORAD_CAT_ID   = 270042
ELEMENT_SET_NO = 999
REV_AT_EPOCH   = 28008
BSTAR          = .32123428E-3
MEAN_MOTION_DOT = .23E-6
MEAN_MOTION_DDOT = 0

CCSDS_OMM_VERS = 2.0
CREATION_DATE  = 
ORIGINATOR     = 

OBJECT_NAME    = UNKNOWN
OBJECT_ID      = 
CENTER_NAME    = EARTH
REF_FRAME      = TEME
TIME_SYSTEM    = UTC
MEAN_ELEMENT_THEORY = SGP/SGP4

EPOCH          = 2026-02-24T09:32:01.884192
MEAN_MOTION    = 13.92519722
ECCENTRICITY   = .02502429
INCLINATION    = 98.9053
RA_OF_ASC_NODE = 112.6709
ARG_OF_PERICENTER = 102.7559
MEAN_ANOMALY   = 260.1693

EPHEMERIS_TYPE = 0
CLASSIFICATION_TYPE = U
NORAD_CAT_ID   = 270043
ELEMENT_SET_NO = 999
REV_AT_EPOCH   = 31578
BSTAR          = .75485599E-3
MEAN_MOTION_DOT = .1217E-4
MEAN_MOTION_DDOT = 0

CCSDS_OMM_VERS = 2.0
CREATION_DATE  = 
ORIGINATOR     = 

OBJECT_NAME    = UNKNOWN
OBJECT_ID      = 
CENTER_NAME    = EARTH
REF_FRAME      = TEME
TIME_SYSTEM    = UTC
MEAN_ELEMENT_THEORY = SGP/SGP4

EPOCH          = 2026-03-08T14:16:57.895392
MEAN_MOTION    = 13.00636245
ECCENTRICITY   = .00140041
INCLINATION    = 90.2555
RA_OF_ASC_NODE = 11.1710
ARG_OF_PERICENTER = 120.0797
MEAN_ANOMALY   = 240.1716

EPHEMERIS_TYPE = 0
CLASSIFICATION_TYPE = U
NORAD_CAT_ID   = 270044
ELEMENT_SET_NO = 999
REV_AT_EPOCH   = 29773
BSTAR          = .44900003E-2
MEAN_MOTION_DOT = .1371E-4
MEAN_MOTION_DDOT = 0

CCSDS_OMM_VERS = 2.0
CREATION_DATE  = 
ORIGINATOR     = 

OBJECT_NAME    = UNKNOWN
OBJECT_ID      = 
CENTER_NAME    = EARTH
REF_FRAME      = TEME
TIME_SYSTEM    = UTC
MEAN_ELEMENT_THEORY = SGP/SGP4

EPOCH          = 2026-03-08T13:16:56.962848
MEAN_MOTION    = 12.96433182
ECCENTRICITY   = .00410577
INCLINATION    = 90.2563
RA_OF_ASC_NODE = 11.1419
ARG_OF_PERICENTER = 38.3919
MEAN_ANOMALY   = 322.0110

EPHEMERIS_TYPE = 0
CLASSIFICATION_TYPE = U
NORAD_CAT_ID   = 270045
ELEMENT_SET_NO = 999
REV_AT_EPOCH   = 29711
BSTAR          = -.93099236E-3
MEAN_MOTION_DOT = -.26E-5
MEAN_MOTION_DDOT = 0

CCSDS_OMM_VERS = 2.0
CREATION_DATE  = 
ORIGINATOR     = 

OBJECT_NAME    = UNKNOWN
OBJECT_ID      = 
CENTER_NAME    = EARTH
REF_FRAME      = TEME
TIME_SYSTEM    = UTC
MEAN_ELEMENT_THEORY = SGP/SGP4

EPOCH          = 2026-02-27T22:25:43.727232
MEAN_MOTION    = 12.62581803
ECCENTRICITY   = .0058553
INCLINATION    = 73.9952
RA_OF_ASC_NODE = 301.3852
ARG_OF_PERICENTER = 352.5594
MEAN_ANOMALY   = 7.4589

EPHEMERIS_TYPE = 0
CLASSIFICATION_TYPE = U
NORAD_CAT_ID   = 270046
ELEMENT_SET_NO = 999
REV_AT_EPOCH   = 28819
BSTAR          = .24779954E-3
MEAN_MOTION_DOT = .28E-6
MEAN_MOTION_DDOT = 0

CCSDS_OMM_VERS = 2.0
CREATION_DATE  = 
ORIGINATOR     = 

OBJECT_NAME    = UNKNOWN
OBJECT_ID      = 
CENTER_NAME    = EARTH
REF_FRAME      = TEME
TIME_SYSTEM    = UTC
MEAN_ELEMENT_THEORY = SGP/SGP4

EPOCH          = 2026-03-08T19:49:05.486016
MEAN_MOTION    = 13.77845112
ECCENTRICITY   = .00340062
INCLINATION    = 82.9700
RA_OF_ASC_NODE = 211.2958
ARG_OF_PERICENTER = 138.2907
MEAN_ANOMALY   = 222.0853

EPHEMERIS_TYPE = 0
CLASSIFICATION_TYPE = U
NORAD_CAT_ID   = 270053
ELEMENT_SET_NO = 999
REV_AT_EPOCH   = 31543
BSTAR          = .53346217E-3
MEAN_MOTION_DOT = .552E-5
MEAN_MOTION_DDOT = 0

CCSDS_OMM_VERS = 2.0
CREATION_DATE  = 
ORIGINATOR     = 

OBJECT_NAME    = UNKNOWN
OBJECT_ID      = 
CENTER_NAME    = EARTH
REF_FRAME      = TEME
TIME_SYSTEM    = UTC
MEAN_ELEMENT_THEORY = SGP/SGP4

EPOCH          = 2026-03-08T11:08:35.693664
MEAN_MOTION    = 12.98388886
ECCENTRICITY   = .00286955
INCLINATION    = 90.2234
RA_OF_ASC_NODE = 345.5900
ARG_OF_PERICENTER = 282.5263
MEAN_ANOMALY   = 77.2648

EPHEMERIS_TYPE = 0
CLASSIFICATION_TYPE = U
NORAD_CAT_ID   = 270054
ELEMENT_SET_NO = 999
REV_AT_EPOCH   = 29744
BSTAR          = -.39969283E-2
MEAN_MOTION_DOT = -.117E-4
MEAN_MOTION_DDOT = 0

CCSDS_OMM_VERS = 2.0
CREATION_DATE  = 
ORIGINATOR     = 

OBJECT_NAME    = UNKNOWN
OBJECT_ID      = 
CENTER_NAME    = EARTH
REF_FRAME      = TEME
TIME_SYSTEM    = UTC
MEAN_ELEMENT_THEORY = SGP/SGP4

EPOCH          = 2026-03-02T12:36:39.264480
MEAN_MOTION    = 12.99318369
ECCENTRICITY   = .00294364
INCLINATION    = 90.2515
RA_OF_ASC_NODE = 2.6489
ARG_OF_PERICENTER = 281.9309
MEAN_ANOMALY   = 77.8513

EPHEMERIS_TYPE = 0
CLASSIFICATION_TYPE = U
NORAD_CAT_ID   = 270055
ELEMENT_SET_NO = 999
REV_AT_EPOCH   = 29696
BSTAR          = .15740234E-2
MEAN_MOTION_DOT = .477E-5
MEAN_MOTION_DDOT = 0

CCSDS_OMM_VERS = 2.0
CREATION_DATE  = 
ORIGINATOR     = 

OBJECT_NAME    = UNKNOWN
OBJECT_ID      = 
CENTER_NAME    = EARTH
REF_FRAME      = TEME
TIME_SYSTEM    = UTC
MEAN_ELEMENT_THEORY = SGP/SGP4

EPOCH          = 2026-02-28T12:50:02.160672
MEAN_MOTION    = 12.97979777
ECCENTRICITY   = .00283944
INCLINATION    = 90.2415
RA_OF_ASC_NODE = 2.9342
ARG_OF_PERICENTER = 329.8177
MEAN_ANOMALY   = 30.1307

EPHEMERIS_TYPE = 0
CLASSIFICATION_TYPE = U
NORAD_CAT_ID   = 270058
ELEMENT_SET_NO = 999
REV_AT_EPOCH   = 29644
BSTAR          = .16598705E-2
MEAN_MOTION_DOT = .493E-5
MEAN_MOTION_DDOT = 0

CCSDS_OMM_VERS = 2.0
CREATION_DATE  = 
ORIGINATOR     = 

OBJECT_NAME    = UNKNOWN
OBJECT_ID      = 
CENTER_NAME    = EARTH
REF_FRAME      = TEME
TIME_SYSTEM    = UTC
MEAN_ELEMENT_THEORY = SGP/SGP4

EPOCH          = 2026-03-01T21:42:12.522240
MEAN_MOTION    = 12.23008222
ECCENTRICITY   = .01299549
INCLINATION    = 73.9978
RA_OF_ASC_NODE = 304.8036
ARG_OF_PERICENTER = 284.0299
MEAN_ANOMALY   = 74.6318

EPHEMERIS_TYPE = 0
CLASSIFICATION_TYPE = U
NORAD_CAT_ID   = 270059
ELEMENT_SET_NO = 999
REV_AT_EPOCH   = 27966
BSTAR          = .19178849E-3
MEAN_MOTION_DOT = .6E-7
MEAN_MOTION_DDOT = 0

CCSDS_OMM_VERS = 2.0
CREATION_DATE  = 
ORIGINATOR     = 

OBJECT_NAME    = UNKNOWN
OBJECT_ID      = 
CENTER_NAME    = EARTH
REF_FRAME      = TEME
TIME_SYSTEM    = UTC
MEAN_ELEMENT_THEORY = SGP/SGP4

EPOCH          = 2026-02-26T08:17:12.882336
MEAN_MOTION    = 13.50848669
ECCENTRICITY   = .05367509
INCLINATION    = 30.1001
RA_OF_ASC_NODE = 80.1719
ARG_OF_PERICENTER = 0.6050
MEAN_ANOMALY   = 359.5100

EPHEMERIS_TYPE = 0
CLASSIFICATION_TYPE = U
NORAD_CAT_ID   = 270060
ELEMENT_SET_NO = 999
REV_AT_EPOCH   = 30625
BSTAR          = .39896965E-2
MEAN_MOTION_DOT = .6507E-4
MEAN_MOTION_DDOT = 0

CCSDS_OMM_VERS = 2.0
CREATION_DATE  = 
ORIGINATOR     = 

OBJECT_NAME    = UNKNOWN
OBJECT_ID      = 
CENTER_NAME    = EARTH
REF_FRAME      = TEME
TIME_SYSTEM    = UTC
MEAN_ELEMENT_THEORY = SGP/SGP4

EPOCH          = 2026-03-07T13:49:20.232768
MEAN_MOTION    = 14.24287108
ECCENTRICITY   = .00359605
INCLINATION    = 98.8544
RA_OF_ASC_NODE = 19.4633
ARG_OF_PERICENTER = 175.0170
MEAN_ANOMALY   = 185.1373

EPHEMERIS_TYPE = 0
CLASSIFICATION_TYPE = U
NORAD_CAT_ID   = 270063
ELEMENT_SET_NO = 999
REV_AT_EPOCH   = 32612
BSTAR          = .21347631E-3
MEAN_MOTION_DOT = .451E-5
MEAN_MOTION_DDOT = 0

CCSDS_OMM_VERS = 2.0
CREATION_DATE  = 
ORIGINATOR     = 

OBJECT_NAME    = UNKNOWN
OBJECT_ID      = 
CENTER_NAME    = EARTH
REF_FRAME      = TEME
TIME_SYSTEM    = UTC
MEAN_ELEMENT_THEORY = SGP/SGP4

EPOCH          = 2026-03-06T08:17:18.140640
MEAN_MOTION    = 12.22972953
ECCENTRICITY   = .01318317
INCLINATION    = 74.0018
RA_OF_ASC_NODE = 300.6153
ARG_OF_PERICENTER = 278.6902
MEAN_ANOMALY   = 79.9220

EPHEMERIS_TYPE = 0
CLASSIFICATION_TYPE = U
NORAD_CAT_ID   = 270065
ELEMENT_SET_NO = 999
REV_AT_EPOCH   = 28014
BSTAR          = -.18840341E-4
MEAN_MOTION_DOT = -.18E-6
MEAN_MOTION_DDOT = 0

CCSDS_OMM_VERS = 2.0
CREATION_DATE  = 
ORIGINATOR     = 

OBJECT_NAME    = UNKNOWN
OBJECT_ID      = 
CENTER_NAME    = EARTH
REF_FRAME      = TEME
TIME_SYSTEM    = UTC
MEAN_ELEMENT_THEORY = SGP/SGP4

EPOCH          = 2026-03-05T14:39:25.302528
MEAN_MOTION    = 14.62938422
ECCENTRICITY   = .00096961
INCLINATION    = 32.2213
RA_OF_ASC_NODE = 179.9049
ARG_OF_PERICENTER = 55.5220
MEAN_ANOMALY   = 304.6342

EPHEMERIS_TYPE = 0
CLASSIFICATION_TYPE = U
NORAD_CAT_ID   = 270066
ELEMENT_SET_NO = 999
REV_AT_EPOCH   = 33533
BSTAR          = .147935E-3
MEAN_MOTION_DOT = .806E-5
MEAN_MOTION_DDOT = 0

CCSDS_OMM_VERS = 2.0
CREATION_DATE  = 
ORIGINATOR     = 

OBJECT_NAME    = UNKNOWN
OBJECT_ID      = 
CENTER_NAME    = EARTH
REF_FRAME      = TEME
TIME_SYSTEM    = UTC
MEAN_ELEMENT_THEORY = SGP/SGP4

EPOCH          = 2026-03-02T14:45:57.350304
MEAN_MOTION    = 12.96498249
ECCENTRICITY   = .00321125
INCLINATION    = 90.2529
RA_OF_ASC_NODE = 11.4009
ARG_OF_PERICENTER = 42.1610
MEAN_ANOMALY   = 318.1971

EPHEMERIS_TYPE = 0
CLASSIFICATION_TYPE = U
NORAD_CAT_ID   = 270067
ELEMENT_SET_NO = 999
REV_AT_EPOCH   = 29638
BSTAR          = .20779154E-2
MEAN_MOTION_DOT = .604E-5
MEAN_MOTION_DDOT = 0

CCSDS_OMM_VERS = 2.0
CREATION_DATE  = 
ORIGINATOR     = 

OBJECT_NAME    = UNKNOWN
OBJECT_ID      = 
CENTER_NAME    = EARTH
REF_FRAME      = TEME
TIME_SYSTEM    = UTC
MEAN_ELEMENT_THEORY = SGP/SGP4

EPOCH          = 2026-03-05T04:31:40.416672
MEAN_MOTION    = 13.50446293
ECCENTRICITY   = .07266062
INCLINATION    = 62.7985
RA_OF_ASC_NODE = 224.4342
ARG_OF_PERICENTER = 356.8008
MEAN_ANOMALY   = 2.8494

EPHEMERIS_TYPE = 0
CLASSIFICATION_TYPE = U
NORAD_CAT_ID   = 270070
ELEMENT_SET_NO = 999
REV_AT_EPOCH   = 30839
BSTAR          = .30751603E-3
MEAN_MOTION_DOT = .961E-5
MEAN_MOTION_DDOT = 0

